      2.10          N: GNSS NAV DATA                        RINEX VERSION / TYPE
fic2rin                                 11/25/2024 00:59:02 PGM / RUN BY / DATE
                                                            END OF HEADER
16 24 11 24 12  0  0.0 -.120241194963D-03  .977706804406D-11  .000000000000D+00
     .240000000000D+02  .581875000000D+02  .447518640948D-08  .257210190573D+01
     .279955565929D-05  .142723933095D-01  .757351517677D-05  .515365439415D+04
     .432000000000D+05 -.372529029846D-08  .304109088082D+01 -.212341547012D-06
     .961036203084D+00  .232718750000D+03  .854903228528D+00 -.788175687824D-08
     .106075847056D-09  .100000000000D+01  .234200000000D+04  .000000000000D+00
     .240000000000D+01  .000000000000D+00 -.102445483208D-07  .240000000000D+02
     .360000000000D+05  .400000000000D+01
8  24 11 24 12  0  0.0  .421917997301D-03  .989075488178D-11  .000000000000D+00
     .700000000000D+02  .887500000000D+01  .486770275936D-08  .158294277761D+01
     .525265932083D-06  .100143804448D-01  .506639480591D-05  .515371348572D+04
     .432000000000D+05 -.558793544769D-07 -.231925036225D+01  .726431608200D-07
     .950443194254D+00  .278250000000D+03  .381521834590D+00 -.841642200633D-08
    -.272511351192D-09  .100000000000D+01  .234200000000D+04  .000000000000D+00
     .240000000000D+01  .000000000000D+00  .465661287308D-08  .700000000000D+02
     .360000000000D+05  .400000000000D+01
4  24 11 24 12  0  0.0  .484845135361D-03  .636646291241D-11  .000000000000D+00
     .400000000000D+01 -.469062500000D+02  .473055418943D-08  .126816575677D+01
    -.228546559811D-05  .315744010732D-02  .585243105888D-05  .515368767548D+04
     .432000000000D+05  .763684511185D-07  .895451751091D+00 -.279396772385D-07
     .966071670980D+00  .268125000000D+03 -.299771108951D+01 -.824927218673D-08
    -.120719314158D-09  .100000000000D+01  .234200000000D+04  .000000000000D+00
     .240000000000D+01  .000000000000D+00 -.465661287308D-08  .260000000000D+03
     .360000000000D+05  .400000000000D+01
9  24 11 24 12  0  0.0  .457952264696D-03  .169393388205D-10  .000000000000D+00
     .700000000000D+02 -.419062500000D+02  .480377152494D-08  .212194860071D+01
    -.216625630856D-05  .318145437632D-02  .558979809284D-05  .515355894852D+04
     .432000000000D+05  .242143869400D-07  .834535456060D+00 -.117346644402D-06
     .959863868812D+00  .267000000000D+03  .201659102393D+01 -.824141471657D-08
    -.110004582132D-09  .100000000000D+01  .234200000000D+04  .000000000000D+00
     .240000000000D+01  .000000000000D+00  .465661287308D-09  .700000000000D+02
     .360000000000D+05  .400000000000D+01
32 24 11 24 12  0  0.0 -.569200143218D-03  .557065504836D-11  .000000000000D+00
     .160000000000D+02 -.500312500000D+02  .469805283562D-08  .226613112068D+01
    -.272132456303D-05  .805473502260D-02  .584125518799D-05  .515375420189D+04
     .432000000000D+05 -.372529029846D-08  .849869584891D+00 -.163912773132D-06
     .963168385704D+00  .268562500000D+03 -.212803184125D+01 -.811212361680D-08
    -.835749098019D-10  .100000000000D+01  .234200000000D+04  .000000000000D+00
     .240000000000D+01  .000000000000D+00  .931322574615D-09  .160000000000D+02
     .360000000000D+05  .400000000000D+01
26 24 11 24 12  0  0.0  .151656568050D-04 -.133013600134D-10  .000000000000D+00
     .140000000000D+02  .552500000000D+02  .515057168484D-08 -.286707811532D+01
     .280328094959D-05  .961498892866D-02  .818073749542D-05  .515373538589D+04
     .432000000000D+05 -.372529029846D-07  .286906648578D+01 -.147148966789D-06
     .930433137441D+00  .205593750000D+03  .582965006032D+00 -.825462955274D-08
     .142148778210D-09  .100000000000D+01  .234200000000D+04  .000000000000D+00
     .240000000000D+01  .000000000000D+00  .651925802231D-08  .140000000000D+02
     .360000000000D+05  .400000000000D+01
19 24 11 24 12  0  0.0  .566431321204D-03  .432009983342D-11  .000000000000D+00
     .150000000000D+02 -.468750000000D+00  .435589572626D-08 -.289171229526D+01
     .171363353729D-06  .995753251482D-02  .580400228500D-05  .515359066010D+04
     .432000000000D+05 -.109896063805D-06 -.217744689378D+01  .109896063805D-06
     .965361841184D+00  .267187500000D+03  .268553456208D+01 -.796354599937D-08
    -.163221084528D-09  .100000000000D+01  .234200000000D+04  .000000000000D+00
     .240000000000D+01  .000000000000D+00 -.153668224812D-07  .150000000000D+02
     .360000000000D+05  .400000000000D+01
22 24 11 24 12  0  0.0 -.817584805191D-04 -.272848410532D-11  .000000000000D+00
     .520000000000D+02  .603437500000D+02  .446197157331D-08  .205371906263D+01
     .313483178616D-05  .137423500419D-01  .651180744171D-05  .515368065834D+04
     .432000000000D+05  .191852450371D-06  .304438548205D+01  .122934579849D-06
     .960391490698D+00  .249281250000D+03 -.108644990542D+01 -.785246994404D-08
    -.678599694973D-11  .100000000000D+01  .234200000000D+04  .000000000000D+00
     .240000000000D+01  .000000000000D+00 -.111758708954D-07  .520000000000D+02
     .360000000000D+05  .400000000000D+01
27 24 11 24 12  0  0.0 -.346079468727D-04  .227373675443D-12  .000000000000D+00
     .560000000000D+02  .606250000000D+01  .467055169008D-08  .164853306811D+01
     .219792127609D-06  .128848542226D-01  .535324215889D-05  .515368392754D+04
     .432000000000D+05 -.229105353355D-06 -.229121441793D+01 -.204890966415D-07
     .959473154114D+00  .277968750000D+03  .800842132506D+00 -.836106255753D-08
    -.227866634417D-09  .100000000000D+01  .234200000000D+04  .000000000000D+00
     .240000000000D+01  .000000000000D+00  .186264514923D-08  .560000000000D+02
     .360000000000D+05  .400000000000D+01
31 24 11 24 12  0  0.0 -.221202615649D-03  .682121026330D-12  .000000000000D+00
     .590000000000D+02 -.239687500000D+02  .459483425043D-08 -.226312454900D+01
    -.127963721752D-05  .107260249788D-01  .101123005152D-04  .515359885788D+04
     .432000000000D+05  .156462192535D-06  .192981948489D+01 -.763684511185D-07
     .954013498492D+00  .179156250000D+03  .775139055379D+00 -.790568644643D-08
    -.421446126351D-10  .100000000000D+01  .234200000000D+04  .000000000000D+00
     .240000000000D+01  .000000000000D+00 -.130385160446D-07  .590000000000D+02
     .360000000000D+05  .400000000000D+01
18 24 11 24 12  0  0.0 -.660562887788D-03 -.113686837722D-12  .000000000000D+00
     .129000000000D+03 -.287500000000D+01  .406516933062D-08 -.454402117981D+00
    -.931322574615D-07  .480124831665D-02  .908970832825D-05  .515372587204D+04
     .432000000000D+05  .875443220139D-07 -.121506984728D+01  .223517417908D-07
     .974156524318D+00  .208718750000D+03 -.294394884717D+01 -.793783064251D-08
     .178578867098D-10  .100000000000D+01  .234200000000D+04  .000000000000D+00
     .240000000000D+01  .000000000000D+00 -.838190317154D-08  .129000000000D+03
     .360000000000D+05  .400000000000D+01
12 24 11 24 12  0  0.0 -.554143916816D-03 -.238742359215D-11  .000000000000D+00
     .880000000000D+02  .576875000000D+02  .456947605130D-08 -.190166005420D+01
     .301934778690D-05  .885755044874D-02  .709109008312D-05  .515378836060D+04
     .432000000000D+05  .206753611565D-06  .302345608656D+01  .100582838058D-06
     .961651910193D+00  .243093750000D+03  .145745708946D+01 -.800247619240D-08
     .653598653579D-10  .100000000000D+01  .234200000000D+04  .000000000000D+00
     .240000000000D+01  .000000000000D+00 -.125728547573D-07  .880000000000D+02
     .360000000000D+05  .400000000000D+01
29 24 11 24 12  0  0.0 -.561324879527D-03  .295585778076D-11  .000000000000D+00
     .750000000000D+02 -.131250000000D+01  .437589655937D-08  .148474764483D+01
    -.558793544769D-08  .287399266381D-02  .577978789806D-05  .515373935699D+04
     .432000000000D+05  .447034835815D-07 -.220620022386D+01  .113621354103D-06
     .968660452276D+00  .271375000000D+03  .266934987220D+01 -.807176479283D-08
    -.214651798252D-09  .100000000000D+01  .234200000000D+04  .000000000000D+00
     .240000000000D+01  .000000000000D+00 -.977888703346D-08  .750000000000D+02
     .360000000000D+05  .400000000000D+01
24 24 11 24 12  0  0.0 -.478310976177D-03  .250111042988D-11  .000000000000D+00
     .600000000000D+02 -.190312500000D+02  .526379068658D-08 -.313665797051D+00
    -.914558768272D-06  .163293349324D-01  .985898077488D-05  .515369523239D+04
     .432000000000D+05 -.558793544769D-07  .180730061801D+01  .201165676117D-06
     .933785823836D+00  .174281250000D+03  .103294077717D+01 -.862214486123D-08
    -.178936024832D-09  .100000000000D+01  .234200000000D+04  .000000000000D+00
     .240000000000D+01  .000000000000D+00  .232830643654D-08  .600000000000D+02
     .360000000000D+05  .400000000000D+01
28 24 11 24 12  0  0.0 -.488650519401D-03 -.114823706099D-10  .000000000000D+00
     .171000000000D+03 -.310625000000D+02  .439804033889D-08 -.239478677529D+01
    -.154040753841D-05  .477204448543D-03  .104699283838D-04  .515376799011D+04
     .432000000000D+05  .372529029846D-08  .187652237443D+01  .149011611938D-07
     .961121682850D+00  .178687500000D+03  .140599893725D+01 -.791675833619D-08
    -.167149819604D-09  .100000000000D+01  .234200000000D+04  .000000000000D+00
     .240000000000D+01  .000000000000D+00 -.931322574615D-08  .171000000000D+03
     .360000000000D+05  .400000000000D+01
21 24 11 24 12  0  0.0  .966810621321D-04 -.909494701773D-12  .000000000000D+00
     .104000000000D+03 -.222812500000D+02  .439875465436D-08  .139256403889D+01
    -.108405947685D-05  .256267928053D-01  .731647014618D-05  .515363338089D+04
     .432000000000D+05  .366941094398D-06 -.132723724042D+01  .355765223503D-06
     .960766966178D+00  .236656250000D+03 -.488705826548D+00 -.789568602987D-08
    -.286440502825D-09  .100000000000D+01  .234200000000D+04  .000000000000D+00
     .240000000000D+01  .000000000000D+00 -.102445483208D-07  .104000000000D+03
     .360000000000D+05  .400000000000D+01
